start=new Date('2023-06-10T00:00:00.000Z').valueOf();
sats=[{"ELEMENT_SET_NO":"999","PERIAPSIS":"546.509","DECAY_DATE":null,"OBJECT_ID":"2021-036AE","OBJECT_NAME":"STARLINK-2524","APOAPSIS":"547.855","SEMIMAJOR_AXIS":"6925.317","CENTER_NAME":"EARTH","RCS_SIZE":"LARGE","PERIOD":"95.591","NORAD_CAT_ID":"48304","ECCENTRICITY":"0.00009720","MEAN_MOTION_DOT":"0.00020102","MEAN_ELEMENT_THEORY":"SGP4","MEAN_ANOMALY":"263.4070","TIME_SYSTEM":"UTC","CLASSIFICATION_TYPE":"U","TLE_LINE1":"1 48304U 21036AE  23160.35607141  .00020102  00000-0  13642-2 0  9993","EPOCH":"2023-06-09T08:32:44.569824","RA_OF_ASC_NODE":"280.2506","COUNTRY_CODE":"US","REF_FRAME":"TEME","EPHEMERIS_TYPE":"0","TLE_LINE2":"2 48304  53.0537 280.2506 0000972  96.7030 263.4070 15.06410224117387","INCLINATION":"53.0537","SITE":"AFETR","GP_ID":"233551727","ARG_OF_PERICENTER":"96.7030","BSTAR":"0.00136420000000","FILE":"3928951","MEAN_MOTION_DDOT":"0.0000000000000","MEAN_MOTION":"15.06410224","REV_AT_EPOCH":"11738","LAUNCH_DATE":"2021-04-29","OBJECT_TYPE":"PAYLOAD"},{"FILE":"3928934","BSTAR":"0.00154760000000","MEAN_MOTION_DDOT":"0.0000000000000","ARG_OF_PERICENTER":"95.1195","GP_ID":"233552268","SITE":"AFETR","OBJECT_TYPE":"PAYLOAD","LAUNCH_DATE":"2021-04-29","MEAN_MOTION":"15.06427935","REV_AT_EPOCH":"11742","RA_OF_ASC_NODE":"279.0671","EPOCH":"2023-06-09T14:48:13.184928","TLE_LINE1":"1 48305U 21036AF  23160.61681927  .00022862  00000-0  15476-2 0  9999","CLASSIFICATION_TYPE":"U","MEAN_ANOMALY":"264.9905","MEAN_ELEMENT_THEORY":"SGP4","TIME_SYSTEM":"UTC","INCLINATION":"53.0539","EPHEMERIS_TYPE":"0","TLE_LINE2":"2 48305  53.0539 279.0671 0000974  95.1195 264.9905 15.06427935117421","COUNTRY_CODE":"US","REF_FRAME":"TEME","PERIOD":"95.590","CENTER_NAME":"EARTH","RCS_SIZE":"LARGE","SEMIMAJOR_AXIS":"6925.263","MEAN_MOTION_DOT":"0.00022862","ECCENTRICITY":"0.00009740","NORAD_CAT_ID":"48305","DECAY_DATE":null,"OBJECT_ID":"2021-036AF","ELEMENT_SET_NO":"999","PERIAPSIS":"546.453","APOAPSIS":"547.802","OBJECT_NAME":"STARLINK-2519"},{"CENTER_NAME":"EARTH","RCS_SIZE":"LARGE","PERIOD":"95.590","SEMIMAJOR_AXIS":"6925.240","ECCENTRICITY":"0.00010110","MEAN_MOTION_DOT":"0.00020662","NORAD_CAT_ID":"48306","ELEMENT_SET_NO":"999","PERIAPSIS":"546.405","DECAY_DATE":null,"OBJECT_ID":"2021-036AG","APOAPSIS":"547.805","OBJECT_NAME":"STARLINK-2523","ARG_OF_PERICENTER":"95.5669","BSTAR":"0.00140060000000","FILE":"3929125","MEAN_MOTION_DDOT":"0.0000000000000","SITE":"AFETR","GP_ID":"233578172","OBJECT_TYPE":"PAYLOAD","MEAN_MOTION":"15.06435526","REV_AT_EPOCH":"11685","LAUNCH_DATE":"2021-04-29","RA_OF_ASC_NODE":"278.4939","MEAN_ELEMENT_THEORY":"SGP4","MEAN_ANOMALY":"264.5435","TIME_SYSTEM":"UTC","TLE_LINE1":"1 48306U 21036AG  23160.74676998  .00020662  00000-0  14006-2 0  9990","EPOCH":"2023-06-09T17:55:20.926272","CLASSIFICATION_TYPE":"U","INCLINATION":"53.0532","COUNTRY_CODE":"US","REF_FRAME":"TEME","EPHEMERIS_TYPE":"0","TLE_LINE2":"2 48306  53.0532 278.4939 0001011  95.5669 264.5435 15.06435526116853"},{"SITE":"AFETR","GP_ID":"233552309","ARG_OF_PERICENTER":"93.8523","FILE":"3928936","BSTAR":"0.00151860000000","MEAN_MOTION_DDOT":"0.0000000000000","MEAN_MOTION":"15.06429282","REV_AT_EPOCH":"11742","LAUNCH_DATE":"2021-04-29","OBJECT_TYPE":"PAYLOAD","MEAN_ELEMENT_THEORY":"SGP4","MEAN_ANOMALY":"266.2589","TIME_SYSTEM":"UTC","CLASSIFICATION_TYPE":"U","TLE_LINE1":"1 48307U 21036AH  23160.61039550  .00022428  00000-0  15186-2 0  9996","EPOCH":"2023-06-09T14:38:58.171200","RA_OF_ASC_NODE":"279.1055","COUNTRY_CODE":"US","REF_FRAME":"TEME","EPHEMERIS_TYPE":"0","TLE_LINE2":"2 48307  53.0532 279.1055 0001070  93.8523 266.2589 15.06429282117421","INCLINATION":"53.0532","SEMIMAJOR_AXIS":"6925.259","RCS_SIZE":"LARGE","CENTER_NAME":"EARTH","PERIOD":"95.590","NORAD_CAT_ID":"48307","MEAN_MOTION_DOT":"0.00022428","ECCENTRICITY":"0.00010700","ELEMENT_SET_NO":"999","PERIAPSIS":"546.383","DECAY_DATE":null,"OBJECT_ID":"2021-036AH","OBJECT_NAME":"STARLINK-2528","APOAPSIS":"547.865"},{"OBJECT_TYPE":"PAYLOAD","MEAN_MOTION":"15.06431182","REV_AT_EPOCH":"11683","LAUNCH_DATE":"2021-04-29","ARG_OF_PERICENTER":"99.0969","BSTAR":"0.00152370000000","FILE":"3928876","MEAN_MOTION_DDOT":"0.0000000000000","SITE":"AFETR","GP_ID":"233545398","INCLINATION":"53.0531","COUNTRY_CODE":"US","REF_FRAME":"TEME","EPHEMERIS_TYPE":"0","TLE_LINE2":"2 48308  53.0531 279.1218 0001252  99.0969 261.0162 15.06431182116832","RA_OF_ASC_NODE":"279.1218","MEAN_ELEMENT_THEORY":"SGP4","MEAN_ANOMALY":"261.0162","TIME_SYSTEM":"UTC","EPOCH":"2023-06-09T14:33:39.966048","TLE_LINE1":"1 48308U 21036AJ  23160.60671257  .00022506  00000-0  15237-2 0  9996","CLASSIFICATION_TYPE":"U","ECCENTRICITY":"0.00012520","MEAN_MOTION_DOT":"0.00022506","NORAD_CAT_ID":"48308","CENTER_NAME":"EARTH","RCS_SIZE":"LARGE","PERIOD":"95.590","SEMIMAJOR_AXIS":"6925.253","APOAPSIS":"547.985","OBJECT_NAME":"STARLINK-2532","PERIAPSIS":"546.251","ELEMENT_SET_NO":"999","DECAY_DATE":null,"OBJECT_ID":"2021-036AJ"},{"APOAPSIS":"547.799","OBJECT_NAME":"STARLINK-2517","ELEMENT_SET_NO":"999","PERIAPSIS":"546.430","DECAY_DATE":null,"OBJECT_ID":"2021-036AK","ECCENTRICITY":"0.00009890","MEAN_MOTION_DOT":"0.00025979","NORAD_CAT_ID":"48309","CENTER_NAME":"EARTH","RCS_SIZE":"MEDIUM","PERIOD":"95.590","SEMIMAJOR_AXIS":"6925.249","INCLINATION":"53.0534","COUNTRY_CODE":"US","REF_FRAME":"TEME","EPHEMERIS_TYPE":"0","TLE_LINE2":"2 48309  53.0534 279.1390 0000989  88.8450 271.2652 15.06432344116832","RA_OF_ASC_NODE":"279.1390","MEAN_ANOMALY":"271.2652","MEAN_ELEMENT_THEORY":"SGP4","TIME_SYSTEM":"UTC","EPOCH":"2023-06-09T14:28:21.487872","TLE_LINE1":"1 48309U 21036AK  23160.60302648  .00025979  00000-0  17550-2 0  9999","CLASSIFICATION_TYPE":"U","OBJECT_TYPE":"PAYLOAD","MEAN_MOTION":"15.06432344","REV_AT_EPOCH":"11683","LAUNCH_DATE":"2021-04-29","ARG_OF_PERICENTER":"88.8450","FILE":"3928876","BSTAR":"0.00175500000000","MEAN_MOTION_DDOT":"0.0000000000000","SITE":"AFETR","GP_ID":"233545647"},{"ELEMENT_SET_NO":"999","PERIAPSIS":"546.408","DECAY_DATE":null,"OBJECT_ID":"2021-036AL","OBJECT_NAME":"STARLINK-2536","APOAPSIS":"547.812","SEMIMAJOR_AXIS":"6925.245","RCS_SIZE":"LARGE","CENTER_NAME":"EARTH","PERIOD":"95.590","NORAD_CAT_ID":"48310","ECCENTRICITY":"0.00010130","MEAN_MOTION_DOT":"0.00027126","MEAN_ELEMENT_THEORY":"SGP4","MEAN_ANOMALY":"266.7219","TIME_SYSTEM":"UTC","TLE_LINE1":"1 48310U 21036AL  23160.59934058  .00027126  00000-0  18313-2 0  9999","CLASSIFICATION_TYPE":"U","EPOCH":"2023-06-09T14:23:03.026112","RA_OF_ASC_NODE":"279.1550","COUNTRY_CODE":"US","REF_FRAME":"TEME","EPHEMERIS_TYPE":"0","TLE_LINE2":"2 48310  53.0538 279.1550 0001013  93.3886 266.7219 15.06433798116831","INCLINATION":"53.0538","SITE":"AFETR","GP_ID":"233544397","ARG_OF_PERICENTER":"93.3886","BSTAR":"0.00183130000000","FILE":"3928876","MEAN_MOTION_DDOT":"0.0000000000000","MEAN_MOTION":"15.06433798","REV_AT_EPOCH":"11683","LAUNCH_DATE":"2021-04-29","OBJECT_TYPE":"PAYLOAD"},{"LAUNCH_DATE":"2021-04-29","MEAN_MOTION":"15.06424783","REV_AT_EPOCH":"11747","OBJECT_TYPE":"PAYLOAD","GP_ID":"233552510","SITE":"AFETR","FILE":"3928943","BSTAR":"0.00126230000000","MEAN_MOTION_DDOT":"0.0000000000000","ARG_OF_PERICENTER":"111.1152","EPHEMERIS_TYPE":"0","TLE_LINE2":"2 48311  53.0536 279.1675 0001122 111.1152 248.9957 15.06424783117470","COUNTRY_CODE":"US","REF_FRAME":"TEME","INCLINATION":"53.0536","TLE_LINE1":"1 48311U 21036AM  23160.59565324  .00018583  00000-0  12623-2 0  9991","EPOCH":"2023-06-09T14:17:44.439936","CLASSIFICATION_TYPE":"U","MEAN_ELEMENT_THEORY":"SGP4","MEAN_ANOMALY":"248.9957","TIME_SYSTEM":"UTC","RA_OF_ASC_NODE":"279.1675","NORAD_CAT_ID":"48311","MEAN_MOTION_DOT":"0.00018583","ECCENTRICITY":"0.00011220","SEMIMAJOR_AXIS":"6925.273","PERIOD":"95.591","RCS_SIZE":"LARGE","CENTER_NAME":"EARTH","OBJECT_NAME":"STARLINK-2534","APOAPSIS":"547.915","DECAY_DATE":null,"OBJECT_ID":"2021-036AM","ELEMENT_SET_NO":"999","PERIAPSIS":"546.361"},{"INCLINATION":"53.0535","COUNTRY_CODE":"US","REF_FRAME":"TEME","EPHEMERIS_TYPE":"0","TLE_LINE2":"2 48312  53.0535 279.1899 0000904 106.1899 253.9189 15.06429734117471","RA_OF_ASC_NODE":"279.1899","MEAN_ELEMENT_THEORY":"SGP4","MEAN_ANOMALY":"253.9189","TIME_SYSTEM":"UTC","TLE_LINE1":"1 48312U 21036AN  23160.59196781  .00022218  00000-0  15046-2 0  9991","EPOCH":"2023-06-09T14:12:26.018784","CLASSIFICATION_TYPE":"U","OBJECT_TYPE":"PAYLOAD","MEAN_MOTION":"15.06429734","REV_AT_EPOCH":"11747","LAUNCH_DATE":"2021-04-29","ARG_OF_PERICENTER":"106.1899","FILE":"3928944","BSTAR":"0.00150460000000","MEAN_MOTION_DDOT":"0.0000000000000","SITE":"AFETR","GP_ID":"233552402","APOAPSIS":"547.748","OBJECT_NAME":"STARLINK-2061","PERIAPSIS":"546.496","ELEMENT_SET_NO":"999","DECAY_DATE":null,"OBJECT_ID":"2021-036AN","MEAN_MOTION_DOT":"0.00022218","ECCENTRICITY":"0.00009040","NORAD_CAT_ID":"48312","CENTER_NAME":"EARTH","RCS_SIZE":"LARGE","PERIOD":"95.590","SEMIMAJOR_AXIS":"6925.257"},{"OBJECT_TYPE":"PAYLOAD","LAUNCH_DATE":"2021-04-29","MEAN_MOTION":"15.06429599","REV_AT_EPOCH":"11682","FILE":"3928876","BSTAR":"0.00148620000000","MEAN_MOTION_DDOT":"0.0000000000000","ARG_OF_PERICENTER":"93.8396","GP_ID":"233546143","SITE":"AFETR","INCLINATION":"53.0536","EPHEMERIS_TYPE":"0","TLE_LINE2":"2 48313  53.0536 279.2055 0000996  93.8396 266.2707 15.06429599116823","COUNTRY_CODE":"US","REF_FRAME":"TEME","RA_OF_ASC_NODE":"279.2055","EPOCH":"2023-06-09T14:07:07.521600","TLE_LINE1":"1 48313U 21036AP  23160.58828150  .00021942  00000-0  14862-2 0  9991","CLASSIFICATION_TYPE":"U","MEAN_ANOMALY":"266.2707","MEAN_ELEMENT_THEORY":"SGP4","TIME_SYSTEM":"UTC","ECCENTRICITY":"0.00009960","MEAN_MOTION_DOT":"0.00021942","NORAD_CAT_ID":"48313","PERIOD":"95.590","RCS_SIZE":"LARGE","CENTER_NAME":"EARTH","SEMIMAJOR_AXIS":"6925.258","APOAPSIS":"547.813","OBJECT_NAME":"STARLINK-2541","DECAY_DATE":null,"OBJECT_ID":"2021-036AP","ELEMENT_SET_NO":"999","PERIAPSIS":"546.433"}];
